BEIDOU-2 IGSO-1 (C06)   
1 36828U 10036A   25202.96364214 -.00000112  00000+0  00000+0 0  9996
2 36828  54.2804 165.9491 0049280 218.0339  10.3361  1.00266647 54786
BEIDOU-2 G4 (C04)       
1 37210U 10057A   25207.15483681 -.00000125  00000+0  00000+0 0  9995
2 37210   2.8350  70.3992 0005654 169.0736 280.2952  1.00273427 54019
BEIDOU-2 IGSO-2 (C07)   
1 37256U 10068A   25205.86780185 -.00000183  00000+0  00000+0 0  9996
2 37256  48.1361 275.8861 0048284 214.3603 232.9028  1.00277485 53503
BEIDOU-2 IGSO-3 (C08)   
1 37384U 11013A   25205.85631207 -.00000162  00000+0  00000+0 0  9995
2 37384  61.9397  43.2475 0031783 175.7823 137.9485  1.00257065 52372
BEIDOU-2 IGSO-4 (C09)   
1 37763U 11038A   25207.35634220 -.00000071  00000+0  00000+0 0  9997
2 37763  54.5826 168.5932 0144733 231.2528 127.7728  1.00269915 51370
BEIDOU-2 IGSO-5 (C10)   
1 37948U 11073A   25206.61461559 -.00000174  00000+0  00000+0 0  9996
2 37948  48.2720 275.5819 0109735 220.5233 124.8001  1.00279282 50120
BEIDOU-2 G5 (C05)       
1 38091U 12008A   25207.13481672  .00000045  00000+0  00000+0 0  9997
2 38091   2.7583  71.1972 0006116 255.5414  84.5137  1.00271498 49211
BEIDOU-2 M3 (C11)       
1 38250U 12018A   25207.25595206 -.00000094  00000+0  00000+0 0  9992
2 38250  56.0344 315.8441 0022156 265.9153  93.8567  1.86233645 90224
BEIDOU-2 M4 (C12)       
1 38251U 12018B   25206.11448966 -.00000092  00000+0  00000+0 0  9995
2 38251  55.9379 315.1228 0013021 265.3758  94.4976  1.86232000 89855
BEIDOU-2 M6 (C14)       
1 38775U 12050B   25205.82506813 -.00000038  00000+0  00000+0 0  9995
2 38775  56.2521  73.7420 0012737 354.7514   5.3133  1.86231024 87215
BEIDOU-2 G6 (C02)       
1 38953U 12059A   25207.06840682 -.00000189  00000+0  00000+0 0  9992
2 38953   3.5902  76.9545 0008090 320.5602  15.1350  1.00273119 46773
BEIDOU-3S IGSO-1S (C31) 
1 40549U 15019A   25206.72475390 -.00000177  00000+0  00000+0 0  9994
2 40549  49.8127 299.3934 0040952 193.6976 166.3041  1.00269428 37794
BEIDOU-3S M2S (C58)     
1 40748U 15037A   25207.39213651 -.00000092  00000+0  00000+0 0  9995
2 40748  55.1572 313.2457 0010340 250.1309 109.7875  1.86229261 68056
BEIDOU-3S M1S (C57)     
1 40749U 15037B   25203.34564475 -.00000091  00000+0  00000+0 0  9999
2 40749  55.1575 313.3755 0002538  18.3736 341.6513  1.86253803 67986
BEIDOU-3S IGSO-2S (C56) 
1 40938U 15053A   25206.50239771 -.00000093  00000+0  00000+0 0  9998
2 40938  49.7260 262.6642 0060588 190.2907 125.5932  1.00258630 36075
BEIDOU-2 IGSO-6 (C13)   
1 41434U 16021A   25206.99960715 -.00000147  00000+0  00000+0 0  9998
2 41434  59.7679  41.2898 0054439 227.9065 130.3501  1.00280288 34200
BEIDOU-2 G7 (C03)       
1 41586U 16037A   25207.04419882 -.00000366  00000+0  00000+0 0  9997
2 41586   1.8575  69.3098 0009006  10.0440 351.0752  1.00272895 33510
BEIDOU-3 M1 (C19)       
1 43001U 17069A   25203.44285131 -.00000047  00000+0  00000+0 0  9991
2 43001  56.3990  73.9692 0009004 322.0328  37.9737  1.86231187 52461
BEIDOU-3 M2 (C20)       
1 43002U 17069B   25207.13963134 -.00000039  00000+0  00000+0 0  9999
2 43002  56.4011  73.8830 0007751 351.8370   8.2296  1.86230867 52526
BEIDOU-3 M7 (C27)       
1 43107U 18003A   25206.34755653 -.00000092  00000+0  00000+0 0  9990
2 43107  54.6163 313.6947 0003884  92.9082 267.1616  1.86232493 51269
BEIDOU-3 M8 (C28)       
1 43108U 18003B   25206.29130517 -.00000092  00000+0  00000+0 0  9991
2 43108  54.6093 313.6802 0003603 250.7962 109.1902  1.86230984 51279
BEIDOU-3 M4 (C22)       
1 43207U 18018A   25203.51106130 -.00000046  00000+0  00000+0 0  9992
2 43207  56.3578  74.0422 0006962  23.6129 336.4893  1.86231092 50606
BEIDOU-3 M3 (C21)       
1 43208U 18018B   25206.26241331 -.00000038  00000+0  00000+0 0  9992
2 43208  56.3598  73.9551 0007211 340.4627  19.5883  1.86231148 50656
BEIDOU-3 M9 (C29)       
1 43245U 18029A   25202.72087586 -.00000089  00000+0  00000+0 0  9998
2 43245  54.4913 311.4880 0001333 200.3609 159.6514  1.86232524 49749
BEIDOU-3 M10 (C30)      
1 43246U 18029B   25205.87598073 -.00000088  00000+0  00000+0 0  9995
2 43246  54.4862 311.4059 0002861  23.7363 336.3044  1.86229180 49782
BEIDOU-2 IGSO-7 (C16)   
1 43539U 18057A   25202.89613862 -.00000109  00000+0  00000+0 0  9998
2 43539  55.1702 165.9162 0089792 236.5057 329.0183  1.00246208 25814
BEIDOU-3 M5 (C23)       
1 43581U 18062A   25207.17477556  .00000025  00000+0  00000+0 0  9991
2 43581  54.1001 193.3873 0005594 286.2521  73.6588  1.86228791 47560
BEIDOU-3 M6 (C24)       
1 43582U 18062B   25202.74306140  .00000076  00000+0  00000+0 0  9996
2 43582  54.1003 193.5272 0004831   2.7824 357.2196  1.86229519 47484
BEIDOU-3 M12 (C26)      
1 43602U 18067A   25203.21620171  .00000065  00000+0  00000+0 0  9998
2 43602  54.1935 192.2292 0007376  24.0730 335.9550  1.86227659 46972
BEIDOU-3 M11 (C25)      
1 43603U 18067B   25207.10903132  .00000024  00000+0  00000+0 0  9997
2 43603  54.1907 192.0615 0004273   7.1421 352.8345  1.86227260 47071
BEIDOU-3 M13 (C32)      
1 43622U 18072A   25203.30863853 -.00000047  00000+0  00000+0 0  9993
2 43622  56.3300  73.5689 0005733 326.1991  33.8339  1.86231330 46515
BEIDOU-3 M14 (C33)      
1 43623U 18072B   25206.93280527 -.00000039  00000+0  00000+0 0  9998
2 43623  56.3353  73.4425 0004874   6.3796 353.7057  1.86231412 46574
BEIDOU-3 M16 (C35)      
1 43647U 18078A   25203.33354981 -.00000089  00000+0  00000+0 0  9992
2 43647  54.3877 311.5323 0006271  30.6435 329.4116  1.86232142 46011
BEIDOU-3 M15 (C34)      
1 43648U 18078B   25202.92581282 -.00000089  00000+0  00000+0 0  9993
2 43648  54.3836 311.5480 0003213  48.5856 311.4598  1.86232284 46033
BEIDOU-3 G1 (C59)       
1 43683U 18085A   25207.00818719 -.00000291  00000+0  00000+0 0  9997
2 43683   2.7611 107.0731 0004025 359.2445 340.6270  1.00269971 24783
BEIDOU-3 M17 (C36)      
1 43706U 18093A   25203.08179213  .00000070  00000+0  00000+0 0  9999
2 43706  54.1838 193.4944 0010274 287.2570  72.6275  1.86228218 45398
BEIDOU-3 M18 (C37)      
1 43707U 18093B   25207.23949404  .00000025  00000+0  00000+0 0  9998
2 43707  54.1842 193.3451 0008247 314.3680  45.5367  1.86229998 45462
BEIDOU-3 IGSO-1 (C38)   
1 44204U 19023A   25207.56056462 -.00000206  00000+0  00000+0 0  9996
2 44204  58.2349  41.0095 0023890 216.0296   7.8119  1.00285923 23094
BEIDOU-2 G8 (C01)       
1 44231U 19027A   25206.93764773 -.00000260  00000+0  00000+0 0  9991
2 44231   1.7869  75.2175 0003683 245.0788 105.6497  1.00269804 22802
BEIDOU-3 IGSO-2 (C39)   
1 44337U 19035A   25206.76158625 -.00000151  00000+0  00000+0 0  9990
2 44337  55.2158 161.7306 0035401 210.6626 324.2233  1.00258957 22425
BEIDOU-3 M24 (C46)      
1 44542U 19061A   25205.16285481  .00000036  00000+0  00000+0 0  9992
2 44542  54.4115 193.7900 0008325 351.3546   8.6137  1.86229272 39685
BEIDOU-3 M23 (C45)      
1 44543U 19061B   25206.36214300  .00000026  00000+0  00000+0 0  9997
2 44543  54.4098 193.7179 0005805 331.4189  25.3737  1.86229470 39701
BEIDOU-3 IGSO-3 (C40)   
1 44709U 19073A   25205.62088379 -.00000180  00000+0  00000+0 0  9999
2 44709  55.3602 284.4384 0045317 189.8170 170.1973  1.00287402 21155
BEIDOU-3 M22 (C44)      
1 44793U 19078A   25207.15254738 -.00000090  00000+0  00000+0 0  9991
2 44793  54.2307 311.2817 0005191  41.2027 318.8686  1.86232269 38588
BEIDOU-3 M21 (C43)      
1 44794U 19078B   25207.28697269 -.00000090  00000+0  00000+0 0  9996
2 44794  54.2041 311.2446 0003116  37.2861 322.7682  1.86227798 38589
BEIDOU-3 M19 (C41)      
1 44864U 19090A   25207.24330642 -.00000040  00000+0  00000+0 0  9998
2 44864  56.2681  73.5870 0016272 291.3995 233.7915  1.86231659 38161
BEIDOU-3 M20 (C42)      
1 44865U 19090B   25207.16712766 -.00000040  00000+0  00000+0 0  9991
2 44865  56.2697  73.6236 0014192 306.8089 256.9424  1.86231568 38139
BEIDOU-3 G2 (C60)       
1 45344U 20017A   25207.06762682 -.00000153  00000+0  00000+0 0  9991
2 45344   2.9397  41.2424 0001499  88.0070 279.1226  1.00271450 20006
BEIDOU-3 G3 (C61)       
1 45807U 20040A   25206.93088770 -.00000366  00000+0  00000+0 0  9991
2 45807   1.6513  64.8626 0004522 340.5083 344.1259  1.00275689 18791
BEIDOU-3 G4 (C62)       
1 56564U 23066A   25207.16433595 -.00000123  00000+0  00000+0 0  9990
2 56564   1.1327 293.8514 0006592 196.4581  32.8620  1.00270071  8131
BEIDOU-3 M28 (C50)      
1 58654U 23207A   25205.75550349 -.00000041  00000+0  00000+0 0  9998
2 58654  55.4559  73.3735 0001911 356.5390   3.5366  1.86229898 10742
BEIDOU-3 M26 (C48)      
1 58655U 23207B   25202.33263478 -.00000054  00000+0  00000+0 0  9998
2 58655  55.4547  73.4757 0001670 305.0151  55.0339  1.86231551 10663
BEIDOU-3 M25 (C47)      
1 61186U 24168B   25207.52544720 -.00000093  00000+0  00000+0 0  9999
2 61186  54.7607 313.5420 0003758 281.3591  77.7100  1.86230128  5719
BEIDOU-3 M27 (C49)      
1 61187U 24168C   25207.41846156 -.00000093  00000+0  00000+0 0  9996
2 61187  54.7562 313.5298 0000631  19.9367  42.2994  1.86230161  5744
